[{"OBJECT_NAME":"STARLINK-36095","OBJECT_ID":"2025-281Z","EPOCH":"2026-03-09T05:28:48.726336","MEAN_MOTION":15.27588294,"ECCENTRICITY":0.00023388,"INCLINATION":43.0043,"RA_OF_ASC_NODE":346.1916,"ARG_OF_PERICENTER":259.0875,"MEAN_ANOMALY":100.9714,"EPHEMERIS_TYPE":0,"CLASSIFICATION_TYPE":"U","NORAD_CAT_ID":66871,"ELEMENT_SET_NO":999,"REV_AT_EPOCH":1609,"BSTAR":0.0016951974,"MEAN_MOTION_DOT":0.00046695,"MEAN_MOTION_DDOT":0},{"OBJECT_NAME":"SIMSAT 1","OBJECT_ID":"2000-026A","EPOCH":"2026-03-09T17:22:54.646176","MEAN_MOTION":15.27666538,"ECCENTRICITY":0.00084816,"INCLINATION":86.3501,"RA_OF_ASC_NODE":180.5413,"ARG_OF_PERICENTER":14.8337,"MEAN_ANOMALY":345.3157,"EPHEMERIS_TYPE":0,"CLASSIFICATION_TYPE":"U","NORAD_CAT_ID":26365,"ELEMENT_SET_NO":999,"REV_AT_EPOCH":42720,"BSTAR":0.00013499313,"MEAN_MOTION_DOT":3.69e-5,"MEAN_MOTION_DDOT":0}]
